[
    {
        "Altitude(m)": 607886.6729031146,
        "Argument of Periapsis(deg)": 0.0,
        "Eccentricity": 0.0,
        "Inclination(deg)": 60.0,
        "Latitude(deg)": 40.99839342130261,
        "Longitude(deg)": -45.027110607401944,
        "Mean Anomaly(deg)": 49.09089999999999,
        "RAAN(deg)": 25.0,
        "Satellite Name": "Test1 113",
        "Satellite Number": 113,
        "Semi-Major Axis(m)": 6980739.136638005,
        "Time(s)": 0
    },
    {
        "Altitude(m)": 607987.5872452704,
        "Argument of Periapsis(deg)": 0.00010418945913296404,
        "Eccentricity": 0.0,
        "Inclination(deg)": 60.0,
        "Latitude(deg)": 41.463484423422926,
        "Longitude(deg)": -44.52288460862664,
        "Mean Anomaly(deg)": 49.71100614546182,
        "RAAN(deg)": 24.99957995086026,
        "Satellite Name": "Test1 113",
        "Satellite Number": 113,
        "Semi-Major Axis(m)": 6980739.136638005,
        "Time(s)": 10
    }
]